CCSDS_OMM_VERS = 2.0
CREATION_DATE  = 
ORIGINATOR     = 

OBJECT_NAME    = SL-16 R/B
OBJECT_ID      = 1993-016B
CENTER_NAME    = EARTH
REF_FRAME      = TEME
TIME_SYSTEM    = UTC
MEAN_ELEMENT_THEORY = SGP/SGP4

EPOCH          = 2026-03-01T22:26:04.138368
MEAN_MOTION    = 14.15303944
ECCENTRICITY   = .0011252
INCLINATION    = 71.0054
RA_OF_ASC_NODE = 231.4690
ARG_OF_PERICENTER = 325.1051
MEAN_ANOMALY   = 34.9333

EPHEMERIS_TYPE = 0
CLASSIFICATION_TYPE = U
NORAD_CAT_ID   = 22566
ELEMENT_SET_NO = 999
REV_AT_EPOCH   = 70107
BSTAR          = .19643E-3
MEAN_MOTION_DOT = .335E-5
MEAN_MOTION_DDOT = 0

CCSDS_OMM_VERS = 2.0
CREATION_DATE  = 
ORIGINATOR     = 

OBJECT_NAME    = COSMOS 2242
OBJECT_ID      = 1993-024A
CENTER_NAME    = EARTH
REF_FRAME      = TEME
TIME_SYSTEM    = UTC
MEAN_ELEMENT_THEORY = SGP/SGP4

EPOCH          = 2026-03-02T01:55:47.539776
MEAN_MOTION    = 14.96511702
ECCENTRICITY   = .0015768
INCLINATION    = 82.5159
RA_OF_ASC_NODE = 273.9965
ARG_OF_PERICENTER = 336.1258
MEAN_ANOMALY   = 23.9231

EPHEMERIS_TYPE = 0
CLASSIFICATION_TYPE = U
NORAD_CAT_ID   = 22626
ELEMENT_SET_NO = 999
REV_AT_EPOCH   = 77925
BSTAR          = .17798E-3
MEAN_MOTION_DOT = .2052E-4
MEAN_MOTION_DDOT = 0

CCSDS_OMM_VERS = 2.0
CREATION_DATE  = 
ORIGINATOR     = 

OBJECT_NAME    = SL-16 R/B
OBJECT_ID      = 1993-059B
CENTER_NAME    = EARTH
REF_FRAME      = TEME
TIME_SYSTEM    = UTC
MEAN_ELEMENT_THEORY = SGP/SGP4

EPOCH          = 2026-03-02T03:16:29.959968
MEAN_MOTION    = 14.17231755
ECCENTRICITY   = .0018844
INCLINATION    = 70.9915
RA_OF_ASC_NODE = 27.0534
ARG_OF_PERICENTER = 227.1434
MEAN_ANOMALY   = 132.8108

EPHEMERIS_TYPE = 0
CLASSIFICATION_TYPE = U
NORAD_CAT_ID   = 22803
ELEMENT_SET_NO = 999
REV_AT_EPOCH   = 67846
BSTAR          = .82491E-4
MEAN_MOTION_DOT = .119E-5
MEAN_MOTION_DDOT = 0

CCSDS_OMM_VERS = 2.0
CREATION_DATE  = 
ORIGINATOR     = 

OBJECT_NAME    = ARIANE 40 R/B
OBJECT_ID      = 1993-061H
CENTER_NAME    = EARTH
REF_FRAME      = TEME
TIME_SYSTEM    = UTC
MEAN_ELEMENT_THEORY = SGP/SGP4

EPOCH          = 2026-03-02T03:45:53.600832
MEAN_MOTION    = 14.32856266
ECCENTRICITY   = .0009688
INCLINATION    = 98.4933
RA_OF_ASC_NODE = 130.1928
ARG_OF_PERICENTER = 310.0218
MEAN_ANOMALY   = 50.0116

EPHEMERIS_TYPE = 0
CLASSIFICATION_TYPE = U
NORAD_CAT_ID   = 22830
ELEMENT_SET_NO = 999
REV_AT_EPOCH   = 69302
BSTAR          = .10245E-3
MEAN_MOTION_DOT = .236E-5
MEAN_MOTION_DDOT = 0

CCSDS_OMM_VERS = 2.0
CREATION_DATE  = 
ORIGINATOR     = 

OBJECT_NAME    = COSMOS 2278
OBJECT_ID      = 1994-023A
CENTER_NAME    = EARTH
REF_FRAME      = TEME
TIME_SYSTEM    = UTC
MEAN_ELEMENT_THEORY = SGP/SGP4

EPOCH          = 2026-03-01T19:38:04.480224
MEAN_MOTION    = 14.14374158
ECCENTRICITY   = .00075856
INCLINATION    = 71.0538
RA_OF_ASC_NODE = 191.5641
ARG_OF_PERICENTER = 29.3056
MEAN_ANOMALY   = 330.8491

EPHEMERIS_TYPE = 0
CLASSIFICATION_TYPE = U
NORAD_CAT_ID   = 23087
ELEMENT_SET_NO = 999
REV_AT_EPOCH   = 64369
BSTAR          = .20828722E-3
MEAN_MOTION_DOT = .352E-5
MEAN_MOTION_DDOT = 0

CCSDS_OMM_VERS = 2.0
CREATION_DATE  = 
ORIGINATOR     = 

OBJECT_NAME    = SL-16 R/B
OBJECT_ID      = 1994-023B
CENTER_NAME    = EARTH
REF_FRAME      = TEME
TIME_SYSTEM    = UTC
MEAN_ELEMENT_THEORY = SGP/SGP4

EPOCH          = 2026-03-02T03:37:16.370688
MEAN_MOTION    = 14.15013469
ECCENTRICITY   = .0005546
INCLINATION    = 70.9986
RA_OF_ASC_NODE = 86.7207
ARG_OF_PERICENTER = 292.8596
MEAN_ANOMALY   = 67.1941

EPHEMERIS_TYPE = 0
CLASSIFICATION_TYPE = U
NORAD_CAT_ID   = 23088
ELEMENT_SET_NO = 999
REV_AT_EPOCH   = 64502
BSTAR          = -.75421E-5
MEAN_MOTION_DOT = -.62E-6
MEAN_MOTION_DDOT = 0

CCSDS_OMM_VERS = 2.0
CREATION_DATE  = 
ORIGINATOR     = 

OBJECT_NAME    = SL-16 R/B
OBJECT_ID      = 1994-074B
CENTER_NAME    = EARTH
REF_FRAME      = TEME
TIME_SYSTEM    = UTC
MEAN_ELEMENT_THEORY = SGP/SGP4

EPOCH          = 2026-03-02T01:59:10.889952
MEAN_MOTION    = 14.79397374
ECCENTRICITY   = .0005297
INCLINATION    = 97.7119
RA_OF_ASC_NODE = 92.2084
ARG_OF_PERICENTER = 239.8207
MEAN_ANOMALY   = 180.6811

EPHEMERIS_TYPE = 0
CLASSIFICATION_TYPE = U
NORAD_CAT_ID   = 23343
ELEMENT_SET_NO = 999
REV_AT_EPOCH   = 68612
BSTAR          = .8151E-4
MEAN_MOTION_DOT = .559E-5
MEAN_MOTION_DDOT = 0

CCSDS_OMM_VERS = 2.0
CREATION_DATE  = 
ORIGINATOR     = 

OBJECT_NAME    = SL-16 R/B
OBJECT_ID      = 1994-077B
CENTER_NAME    = EARTH
REF_FRAME      = TEME
TIME_SYSTEM    = UTC
MEAN_ELEMENT_THEORY = SGP/SGP4

EPOCH          = 2026-03-02T03:15:01.437120
MEAN_MOTION    = 14.15562761
ECCENTRICITY   = .0003509
INCLINATION    = 70.9850
RA_OF_ASC_NODE = 8.3801
ARG_OF_PERICENTER = 222.2371
MEAN_ANOMALY   = 137.8482

EPHEMERIS_TYPE = 0
CLASSIFICATION_TYPE = U
NORAD_CAT_ID   = 23405
ELEMENT_SET_NO = 999
REV_AT_EPOCH   = 61516
BSTAR          = -.10233E-3
MEAN_MOTION_DOT = -.248E-5
MEAN_MOTION_DDOT = 0

CCSDS_OMM_VERS = 2.0
CREATION_DATE  = 
ORIGINATOR     = 

OBJECT_NAME    = ARIANE 40+ R/B
OBJECT_ID      = 1995-021B
CENTER_NAME    = EARTH
REF_FRAME      = TEME
TIME_SYSTEM    = UTC
MEAN_ELEMENT_THEORY = SGP/SGP4

EPOCH          = 2026-03-02T03:58:55.627104
MEAN_MOTION    = 14.39765878
ECCENTRICITY   = .000733
INCLINATION    = 98.4513
RA_OF_ASC_NODE = 132.7500
ARG_OF_PERICENTER = 156.4856
MEAN_ANOMALY   = 231.6985

EPHEMERIS_TYPE = 0
CLASSIFICATION_TYPE = U
NORAD_CAT_ID   = 23561
ELEMENT_SET_NO = 999
REV_AT_EPOCH   = 61816
BSTAR          = .11694E-3
MEAN_MOTION_DOT = .323E-5
MEAN_MOTION_DDOT = 0

CCSDS_OMM_VERS = 2.0
CREATION_DATE  = 
ORIGINATOR     = 

OBJECT_NAME    = SL-16 R/B
OBJECT_ID      = 1995-058B
CENTER_NAME    = EARTH
REF_FRAME      = TEME
TIME_SYSTEM    = UTC
MEAN_ELEMENT_THEORY = SGP/SGP4

EPOCH          = 2026-03-02T01:42:47.928384
MEAN_MOTION    = 14.15492751
ECCENTRICITY   = .0011054
INCLINATION    = 71.0208
RA_OF_ASC_NODE = 196.2478
ARG_OF_PERICENTER = 139.2370
MEAN_ANOMALY   = 220.9583

EPHEMERIS_TYPE = 0
CLASSIFICATION_TYPE = U
NORAD_CAT_ID   = 23705
ELEMENT_SET_NO = 999
REV_AT_EPOCH   = 56677
BSTAR          = -.3119E-4
MEAN_MOTION_DOT = -.109E-5
MEAN_MOTION_DDOT = 0

CCSDS_OMM_VERS = 2.0
CREATION_DATE  = 
ORIGINATOR     = 

OBJECT_NAME    = SL-16 R/B
OBJECT_ID      = 1996-051B
CENTER_NAME    = EARTH
REF_FRAME      = TEME
TIME_SYSTEM    = UTC
MEAN_ELEMENT_THEORY = SGP/SGP4

EPOCH          = 2026-03-01T19:25:05.312928
MEAN_MOTION    = 14.12413245
ECCENTRICITY   = .00157933
INCLINATION    = 70.7592
RA_OF_ASC_NODE = 191.9176
ARG_OF_PERICENTER = 159.5684
MEAN_ANOMALY   = 200.6071

EPHEMERIS_TYPE = 0
CLASSIFICATION_TYPE = U
NORAD_CAT_ID   = 24298
ELEMENT_SET_NO = 999
REV_AT_EPOCH   = 52053
BSTAR          = .67097407E-4
MEAN_MOTION_DOT = .75E-6
MEAN_MOTION_DDOT = 0

CCSDS_OMM_VERS = 2.0
CREATION_DATE  = 
ORIGINATOR     = 

OBJECT_NAME    = ORBVIEW 2 (SEASTAR)
OBJECT_ID      = 1997-037A
CENTER_NAME    = EARTH
REF_FRAME      = TEME
TIME_SYSTEM    = UTC
MEAN_ELEMENT_THEORY = SGP/SGP4

EPOCH          = 2026-03-01T23:02:02.729184
MEAN_MOTION    = 14.35487801
ECCENTRICITY   = .00031936
INCLINATION    = 98.8553
RA_OF_ASC_NODE = 225.0674
ARG_OF_PERICENTER = 87.4836
MEAN_ANOMALY   = 272.6714

EPHEMERIS_TYPE = 0
CLASSIFICATION_TYPE = U
NORAD_CAT_ID   = 24883
ELEMENT_SET_NO = 999
REV_AT_EPOCH   = 50736
BSTAR          = .14270834E-3
MEAN_MOTION_DOT = .364E-5
MEAN_MOTION_DDOT = 0

