SL-16 R/B               
1 22566U 93016B   26060.93477012  .00000335  00000+0  19643-3 0  9993
2 22566  71.0054 231.4690 0011252 325.1051  34.9333 14.15303944701077
COSMOS 2242             
1 22626U 93024A   26061.08041134  .00002052  00000+0  17798-3 0  9995
2 22626  82.5159 273.9965 0015768 336.1258  23.9231 14.96511702779252
SL-16 R/B               
1 22803U 93059B   26061.13645787  .00000119  00000+0  82491-4 0  9995
2 22803  70.9915  27.0534 0018844 227.1434 132.8108 14.17231755678467
ARIANE 40 R/B           
1 22830U 93061H   26061.15687038  .00000236  00000+0  10245-3 0  9992
2 22830  98.4933 130.1928 0009688 310.0218  50.0116 14.32856266693029
COSMOS 2278             
1 23087U 94023A   26060.81810741  .00000352  00000+0  20829-3 0  9995
2 23087  71.0538 191.5641 0007585  29.3056 330.8491 14.14374158643697
SL-16 R/B               
1 23088U 94023B   26061.15088392 -.00000062  00000+0 -75421-5 0  9993
2 23088  70.9986  86.7207 0005546 292.8596  67.1941 14.15013469645022
SL-16 R/B               
1 23343U 94074B   26061.08276493  .00000559  00000+0  81510-4 0  9990
2 23343  97.7119  92.2084 0005297 239.8207 180.6811 14.79397374686122
SL-16 R/B               
1 23405U 94077B   26061.13543330 -.00000248  00000+0 -10233-3 0  9995
2 23405  70.9850   8.3801 0003509 222.2371 137.8482 14.15562761615161
ARIANE 40+ R/B          
1 23561U 95021B   26061.16592161  .00000323  00000+0  11694-3 0  9991
2 23561  98.4513 132.7500 0007330 156.4856 231.6985 14.39765878618169
SL-16 R/B               
1 23705U 95058B   26061.07138806 -.00000109  00000+0 -31190-4 0  9991
2 23705  71.0208 196.2478 0011054 139.2370 220.9583 14.15492751566779
SL-16 R/B               
1 24298U 96051B   26060.80908927  .00000075  00000+0  67097-4 0  9997
2 24298  70.7592 191.9176 0015793 159.5684 200.6071 14.12413245520532
ORBVIEW 2 (SEASTAR)     
1 24883U 97037A   26060.95975381  .00000364  00000+0  14271-3 0  9992
2 24883  98.8553 225.0674 0003193  87.4836 272.6714 14.35487801507364
